#aV2024  1 30  0  0  0.00000000     288 DD+AD WGS84 FIT  NGA
## 2299 172800.00000000   300.00000000 60339 0.0000000000000
+   32     1  2  3  4  5  6  7  8  9 10 11 12 13 14 15 16 17
+         18 19 20 21 22 23 24 25 26 27 28 29 30 31 32  0  0
+          0  0  0  0  0  0  0  0  0  0  0  0  0  0  0  0  0
+          0  0  0  0  0  0  0  0  0  0  0  0  0  0  0  0  0
+          0  0  0  0  0  0  0  0  0  0  0  0  0  0  0  0  0
++         2  2  2  2  2  2  2  2  2  2  2  2  2  2  2  2  2
++         2  2  2  2  2  2  2  2  2  2  2  2  2  2  2  0  0
++         0  0  0  0  0  0  0  0  0  0  0  0  0  0  0  0  0
++         0  0  0  0  0  0  0  0  0  0  0  0  0  0  0  0  0
++         0  0  0  0  0  0  0  0  0  0  0  0  0  0  0  0  0
%c cc cc ccc ccc cccc cccc cccc cccc ccccc ccccc ccccc ccccc
%c cc cc ccc ccc cccc cccc cccc cccc ccccc ccccc ccccc ccccc
%f  0.0000000  0.000000000  0.00000000000  0.000000000000000
%f  0.0000000  0.000000000  0.00000000000  0.000000000000000
%i    0    0    0    0      0      0      0      0         0
%i    0    0    0    0      0      0      0      0         0
/*      NGA, ST. LOUIS,MO.                                  
/*   EPHEMERIS COMPUTED FROM 2 DAYS OF DATA                 
/*   EPOCHA v9 SMOOTHER                                     
/*   G2296 IERS2010 SATIGS SATAPC                           
*  2024  1 30 22 15  0.00000000
P  1  12727.603625  -9065.650046  21081.584084    167.739284                    
V  1   4381.486347  27206.007023   9228.680437      0.013065                    
P  2  15414.316656  -1085.876993  22121.123051   -492.946092                    
V  2   6210.416429  26127.900143  -2872.731513      0.057800                    
P  3  22599.552775 -10449.041371   8940.558560    161.517597                    
V  3  -7734.124186   8839.195669  29525.744331      0.250999                    
P  4  22698.719818   -739.756079 -13867.120564    279.508852                    
V  4  15366.458946   8754.592644  24529.588855      0.095750                    
P  5 -19533.280874    619.936775 -18198.384291   -159.956450                    
V  5  16113.965652 -16052.434134 -17924.646670     -0.014448                    
P  6  -6064.116175 -25527.682605  -3655.591935    425.666943                    
V  6   1280.611603  -4962.105682  32010.277700     -0.140750                    
P  7   6668.926434 -21171.610700 -13737.650744    -50.223578                    
V  7   5669.818039  17825.082365 -24348.979870     -0.092266                    
P  8  25711.143997   4744.741216   5730.162410   -164.689787                    
V  8   6052.520525   4835.047274 -30245.631364     -0.019281                    
P  9  12715.371976 -10895.237494 -20713.616737     76.020393                    
V  9  24269.786583   9660.078046   9798.919473      0.124659                    
P 10  -4028.304924  18900.381304  18275.042311    -71.393235                    
V 10 -18648.177716  13290.944474 -18373.097097     -0.014525                    
P 11 -11818.204172 -19186.726051 -14070.845637   -558.937813                    
V 11    104.597287 -17992.802888  24355.718554     -0.134004                    
P 12 -23322.986377   8757.091224   8822.512522   -473.167055                    
V 12   8032.124318  -8802.872165  29101.105445     -0.037677                    
P 13 -22710.520511 -13937.119274  -1576.518360    620.960215                    
V 13   2636.806995  -1145.440034 -31758.455312      0.036008                    
P 14   7996.219593 -20034.158680  15396.353830    312.829309                    
V 14  17071.940263  -9972.623493 -22057.032741      0.101164                    
P 15 -26021.653166  -2092.326576   4963.980380    122.661061                    
V 15  -5976.837190  -4868.014522 -30182.567635      0.039054                    
P 16  15669.351411   6896.660031 -20751.186865   -373.152320                    
V 16 -20812.120727  14718.875493 -10548.156407      0.080427                    
P 17   -864.188247 -16404.497892  21267.317525    718.448439                    
V 17  23944.255778  10223.144212   9188.401802     -0.010791                    
P 18  -6088.303951  22069.538755 -13290.601134   -544.583030                    
V 18  -4307.699202 -16516.156426 -25600.503365     -0.087698                    
P 19 -11007.543151 -18063.638045  16091.681941    433.886216                    
V 19  19040.452303   8062.931235  21472.150985      0.052807                    
P 20 -10543.943279 -11270.204401 -21561.799292    389.349063                    
V 20  18224.385964 -20657.433648   1715.844544     -0.014401                    
P 21  16373.275379   5304.744371  20950.486204    136.640924                    
V 21   5756.677012  24603.662026 -10023.591302     -0.012985                    
P 22   1153.298209 -17732.895017  20258.775919     39.305048                    
V 22  21042.443316 -12947.927353 -12519.263475     -0.063602                    
P 23 -14930.593087  20179.463974   8403.118076    146.007661                    
V 23  -9593.227076   5201.577789 -29793.517792      0.077818                    
P 24 -16103.064482  -1109.459931  20736.554377   -423.426510                    
V 24  -6181.845760 -26619.036207  -5694.421105     -0.066795                    
P 25 -19873.960493  17381.433488   -933.687979    487.041819                    
V 25  -2764.648939  -2082.544047  31682.266291      0.012310                    
P 26   7336.323932  14577.481984 -21053.089603    195.219582                    
V 26 -19932.490274  17586.433581   5636.412595     -0.037819                    
P 27  22413.441168  13311.174927  -6443.902642      0.406757                    
V 27  -8005.634850   -696.581967 -30158.814547     -0.035722                    
P 28   5458.547186  25985.428720   -742.721138   -115.131555                    
V 28  -2579.796890   1422.254854  31746.165244     -0.120937                    
P 29 -14729.181114   8426.434587 -20506.806320   -607.865920                    
V 29 -22987.052279 -11887.411427  11555.556211      0.006542                    
P 30   -511.084036 -25984.752299  -4605.259536   -438.849078                    
V 30   4652.224763   5433.154550 -30611.937214      0.048323                    
P 31  10212.980116  22170.694463 -10165.179032   -227.578650                    
V 31  -1234.500269  13027.904868  28145.736875     -0.001778                    
P 32   5750.581526  16975.627292  19864.084159   -608.737710                    
V 32 -23507.254224  -7747.209538  13356.197106     -0.024525                    
EOF
